{
  "norad_id": 63840,
  "name": "STARLINK-33990",
  "history": [
    {
      "epoch": "2026-03-28T17:21:47.858976Z",
      "apogee_km": 484.0784532451207,
      "perigee_km": 481.8730171675152,
      "latitude_deg": 2.879390519637541e-06,
      "longitude_deg": -116.23183033998684,
      "height_km": 482.8900237090459,
      "semi_major_axis_km": 6861.112735206318,
      "eccentricity": 0.00016072,
      "inclination_deg": 43.0046,
      "raan_deg": 330.3574,
      "arg_perigee_deg": 262.8665,
      "mean_anomaly_deg": 97.2004,
      "mean_motion_rev_day": 15.276045
    },
    {
      "epoch": "2026-03-29T01:12:34.022592Z",
      "apogee_km": 484.03231445534675,
      "perigee_km": 481.7860079421698,
      "latitude_deg": -5.8525460777530605e-05,
      "longitude_deg": 123.90662550343204,
      "height_km": 482.7859222221292,
      "semi_major_axis_km": 6861.0461611987575,
      "eccentricity": 0.0001637,
      "inclination_deg": 43.0045,
      "raan_deg": 328.5105,
      "arg_perigee_deg": 264.9235,
      "mean_anomaly_deg": 95.1429,
      "mean_motion_rev_day": 15.27626734
    },
    {
      "epoch": "2026-03-30T00:44:54.530016Z",
      "apogee_km": 484.09316830717034,
      "perigee_km": 481.8427258845222,
      "latitude_deg": 1.1983402590073693e-05,
      "longitude_deg": 124.31653999915225,
      "height_km": 482.54099019092945,
      "semi_major_axis_km": 6861.104947095846,
      "eccentricity": 0.000164,
      "inclination_deg": 43.0041,
      "raan_deg": 322.9725,
      "arg_perigee_deg": 280.4616,
      "mean_anomaly_deg": 79.6051,
      "mean_motion_rev_day": 15.27607101
    },
    {
      "epoch": "2026-03-30T00:44:54.530880Z",
      "apogee_km": 484.0932369182192,
      "perigee_km": 481.8426572734734,
      "latitude_deg": 1.2756783150427274e-05,
      "longitude_deg": 124.31653721394306,
      "height_km": 482.54097773459193,
      "semi_major_axis_km": 6861.104947095846,
      "eccentricity": 0.00016401,
      "inclination_deg": 43.0041,
      "raan_deg": 322.9725,
      "arg_perigee_deg": 280.4616,
      "mean_anomaly_deg": 79.6051,
      "mean_motion_rev_day": 15.27607101
    },
    {
      "epoch": "2026-03-30T14:52:19.773120Z",
      "apogee_km": 483.36051346916156,
      "perigee_km": 482.7424576103831,
      "latitude_deg": -3.4092420319162245e-05,
      "longitude_deg": -91.44222692669996,
      "height_km": 482.6253103972406,
      "semi_major_axis_km": 6861.188485539772,
      "eccentricity": 4.504e-05,
      "inclination_deg": 43.0003,
      "raan_deg": 319.649,
      "arg_perigee_deg": 310.8157,
      "mean_anomaly_deg": 49.2655,
      "mean_motion_rev_day": 15.27579202
    },
    {
      "epoch": "2026-03-30T16:26:29.360256Z",
      "apogee_km": 483.20660593941375,
      "perigee_km": 482.8984013069112,
      "latitude_deg": 1.2990386356402326e-05,
      "longitude_deg": -115.41587312415861,
      "height_km": 482.6745431229448,
      "semi_major_axis_km": 6861.189503623162,
      "eccentricity": 2.246e-05,
      "inclination_deg": 43.0014,
      "raan_deg": 319.2797,
      "arg_perigee_deg": 4.9616,
      "mean_anomaly_deg": 355.1238,
      "mean_motion_rev_day": 15.27578862
    },
    {
      "epoch": "2026-03-31T00:17:16.338624Z",
      "apogee_km": 484.0453089805442,
      "perigee_km": 482.08122179257407,
      "latitude_deg": 2.2666473453568417e-05,
      "longitude_deg": 124.71895487917978,
      "height_km": 482.8166332205251,
      "semi_major_axis_km": 6861.200265386558,
      "eccentricity": 0.00014313,
      "inclination_deg": 43.003,
      "raan_deg": 317.4325,
      "arg_perigee_deg": 271.3826,
      "mean_anomaly_deg": 88.6862,
      "mean_motion_rev_day": 15.27575268
    },
    {
      "epoch": "2026-03-31T23:49:36.424416Z",
      "apogee_km": 484.22908188308065,
      "perigee_km": 481.6921224337066,
      "latitude_deg": 2.4378100425435965e-05,
      "longitude_deg": 125.12905848890743,
      "height_km": 483.05710980639833,
      "semi_major_axis_km": 6861.097602158394,
      "eccentricity": 0.00018488,
      "inclination_deg": 43.0002,
      "raan_deg": 311.893,
      "arg_perigee_deg": 255.4104,
      "mean_anomaly_deg": 104.6543,
      "mean_motion_rev_day": 15.27609554
    },
    {
      "epoch": "2026-04-02T21:20:07.734624Z",
      "apogee_km": 484.04847134476586,
      "perigee_km": 481.8392033151458,
      "latitude_deg": 3.4822955349442553e-05,
      "longitude_deg": 149.92043650225827,
      "height_km": 482.78626416867144,
      "semi_major_axis_km": 6861.080837329955,
      "eccentricity": 0.000161,
      "inclination_deg": 43.0026,
      "raan_deg": 301.1838,
      "arg_perigee_deg": 266.6119,
      "mean_anomaly_deg": 93.4549,
      "mean_motion_rev_day": 15.27615153
    },
    {
      "epoch": "2026-04-02T21:20:07.735488Z",
      "apogee_km": 484.04812829072307,
      "perigee_km": 481.8395463691868,
      "latitude_deg": 3.089896456710286e-05,
      "longitude_deg": 149.92042870807046,
      "height_km": 482.7862438967981,
      "semi_major_axis_km": 6861.080837329955,
      "eccentricity": 0.00016095,
      "inclination_deg": 43.0026,
      "raan_deg": 301.1838,
      "arg_perigee_deg": 266.6119,
      "mean_anomaly_deg": 93.4549,
      "mean_motion_rev_day": 15.27615153
    },
    {
      "epoch": "2026-04-03T14:35:51.065088Z",
      "apogee_km": 484.30946390078043,
      "perigee_km": 481.8421717714873,
      "latitude_deg": 1.3266119936670888e-06,
      "longitude_deg": -113.78136942251561,
      "height_km": 482.66651119839423,
      "semi_major_axis_km": 6861.212817836134,
      "eccentricity": 0.0001798,
      "inclination_deg": 43.0051,
      "raan_deg": 297.1215,
      "arg_perigee_deg": 278.7143,
      "mean_anomaly_deg": 81.3505,
      "mean_motion_rev_day": 15.27571076
    },
    {
      "epoch": "2026-04-04T12:34:02.932320Z",
      "apogee_km": 483.60724875716824,
      "perigee_km": 482.39035771110775,
      "latitude_deg": -5.2699725915531514e-05,
      "longitude_deg": -89.4031486890386,
      "height_km": 482.66100675114393,
      "semi_major_axis_km": 6861.135803234138,
      "eccentricity": 8.868e-05,
      "inclination_deg": 43.0004,
      "raan_deg": 291.9515,
      "arg_perigee_deg": 280.8091,
      "mean_anomaly_deg": 79.266,
      "mean_motion_rev_day": 15.27596796
    },
    {
      "epoch": "2026-04-05T13:40:34.069728Z",
      "apogee_km": 483.78556373087304,
      "perigee_km": 482.57659948489436,
      "latitude_deg": 1.1449268732099414e-05,
      "longitude_deg": -112.97419653649037,
      "height_km": 482.99606676096204,
      "semi_major_axis_km": 6861.318081607884,
      "eccentricity": 8.81e-05,
      "inclination_deg": 42.9996,
      "raan_deg": 286.0413,
      "arg_perigee_deg": 266.3217,
      "mean_anomaly_deg": 93.7534,
      "mean_motion_rev_day": 15.27535923
    },
    {
      "epoch": "2026-04-05T13:40:34.070592Z",
      "apogee_km": 483.7859038020106,
      "perigee_km": 482.5762534247506,
      "latitude_deg": 1.537176903461933e-05,
      "longitude_deg": -112.97419596316632,
      "height_km": 482.9960857728216,
      "semi_major_axis_km": 6861.31807861338,
      "eccentricity": 8.815e-05,
      "inclination_deg": 42.9996,
      "raan_deg": 286.0413,
      "arg_perigee_deg": 266.3217,
      "mean_anomaly_deg": 93.7534,
      "mean_motion_rev_day": 15.27535924
    },
    {
      "epoch": "2026-04-05T21:31:21.764352Z",
      "apogee_km": 484.121520334822,
      "perigee_km": 482.20694283915964,
      "latitude_deg": 3.077989723675185e-05,
      "longitude_deg": 127.15974822580375,
      "height_km": 483.0373189230801,
      "semi_major_axis_km": 6861.30123158699,
      "eccentricity": 0.00013952,
      "inclination_deg": 43.0012,
      "raan_deg": 284.1962,
      "arg_perigee_deg": 264.228,
      "mean_anomaly_deg": 95.8413,
      "mean_motion_rev_day": 15.2754155
    },
    {
      "epoch": "2026-04-07T12:45:16.227648Z",
      "apogee_km": 483.90763642156617,
      "perigee_km": 482.02124519143035,
      "latitude_deg": -2.5060634755958526e-05,
      "longitude_deg": -112.1597385302252,
      "height_km": 482.7938999973626,
      "semi_major_axis_km": 6861.1014408064975,
      "eccentricity": 0.00013747,
      "inclination_deg": 43.0021,
      "raan_deg": 274.9649,
      "arg_perigee_deg": 266.8059,
      "mean_anomaly_deg": 93.2635,
      "mean_motion_rev_day": 15.27608272
    },
    {
      "epoch": "2026-04-07T19:01:53.316480Z",
      "apogee_km": 484.67970279952533,
      "perigee_km": 481.19153348046257,
      "latitude_deg": 1.0942597069341452e-05,
      "longitude_deg": 151.95047633351766,
      "height_km": 482.3458130540843,
      "semi_major_axis_km": 6861.072618139993,
      "eccentricity": 0.0002542,
      "inclination_deg": 43.0027,
      "raan_deg": 273.4874,
      "arg_perigee_deg": 282.1699,
      "mean_anomaly_deg": 77.8868,
      "mean_motion_rev_day": 15.27617898
    },
    {
      "epoch": "2026-04-08T12:17:36.233952Z",
      "apogee_km": 485.3368654538508,
      "perigee_km": 480.6572975648969,
      "latitude_deg": -1.092928964901875e-05,
      "longitude_deg": -111.7486939048117,
      "height_km": 482.0467765441087,
      "semi_major_axis_km": 6861.134081509374,
      "eccentricity": 0.00034102,
      "inclination_deg": 43.002,
      "raan_deg": 269.426,
      "arg_perigee_deg": 288.144,
      "mean_anomaly_deg": 71.904,
      "mean_motion_rev_day": 15.27597371
    },
    {
      "epoch": "2026-04-08T20:08:22.914240Z",
      "apogee_km": 484.19363805484863,
      "perigee_km": 481.8546682177448,
      "latitude_deg": 9.455943231678297e-06,
      "longitude_deg": 128.38748952981723,
      "height_km": 482.7114808879892,
      "semi_major_axis_km": 6861.161153136297,
      "eccentricity": 0.00017045,
      "inclination_deg": 43.0016,
      "raan_deg": 267.5789,
      "arg_perigee_deg": 274.4041,
      "mean_anomaly_deg": 85.6616,
      "mean_motion_rev_day": 15.2758833
    }
  ]
}